ISS (ZARYA)             
1 25544U 98067A   26037.98653627  .00011965  00000+0  22894-3 0  9993
2 25544  51.6315 224.1327 0011142  71.6186 288.6013 15.48450046551570
CSS (TIANHE)            
1 48274U 21035A   26038.30606567  .00024969  00000+0  31115-3 0  9991
2 48274  41.4681  32.8450 0005158  20.6768 339.4279 15.59315504272861
ISS (NAUKA)             
1 49044U 21066A   26037.98653627  .00011965  00000+0  22894-3 0  9999
2 49044  51.6315 224.1327 0011142  71.6186 288.6013 15.48450046230441
FREGAT DEB              
1 49271U 11037PF  26036.33500904  .00055371  00000+0  93522-1 0  9998
2 49271  51.6559  37.5500 0926622 345.1637  12.3633 12.37884067208680
CSS (WENTIAN)           
1 53239U 22085A   26038.30606567  .00024969  00000+0  31115-3 0  9994
2 53239  41.4681  32.8450 0005158  20.6768 339.4279 15.59315504173846
CSS (MENGTIAN)          
1 54216U 22143A   26038.30606567  .00024969  00000+0  31115-3 0  9995
2 54216  41.4681  32.8450 0005158  20.6768 339.4279 15.59315504158643
PROGRESS-MS 31          
1 64751U 25146A   26037.98653627  .00011965  00000+0  22894-3 0  9994
2 64751  51.6315 224.1327 0011142  71.6186 288.6013 15.48450046  6758
TIANZHOU-9              
1 64786U 25149A   26038.30606567  .00024969  00000+0  31115-3 0  9997
2 64786  41.4681  32.8450 0005158  20.6768 339.4279 15.59315504255307
DRAGON CRS-33           
1 65304U 25186A   26037.98653627  .00011965  00000+0  22894-3 0  9993
2 65304  51.6315 224.1327 0011142  71.6186 288.6013 15.48450046   117
PROGRESS-MS 32          
1 65586U 25204A   26037.98653627  .00011965  00000+0  22894-3 0  9996
2 65586  51.6315 224.1327 0011142  71.6186 288.6013 15.48450046   276
CYGNUS NG-23            
1 65616U 25208A   26037.98653627  .00011965  00000+0  22894-3 0  9994
2 65616  51.6315 224.1327 0011142  71.6186 288.6013 15.48450046   225
ISS OBJECT XK           
1 65731U 98067XK  26037.70294907  .00286625  00000+0  12464-2 0  9995
2 65731  51.6226 210.1936 0003519 254.1842 105.8773 15.83449040 21958
