CCSDS_OMM_VERS = 2.0
CREATION_DATE  = 
ORIGINATOR     = 

OBJECT_NAME    = ISS (ZARYA)
OBJECT_ID      = 1998-067A
CENTER_NAME    = EARTH
REF_FRAME      = TEME
TIME_SYSTEM    = UTC
MEAN_ELEMENT_THEORY = SGP/SGP4

EPOCH          = 2026-02-06T23:40:36.733728
MEAN_MOTION    = 15.48450046
ECCENTRICITY   = .00111427
INCLINATION    = 51.6315
RA_OF_ASC_NODE = 224.1327
ARG_OF_PERICENTER = 71.6186
MEAN_ANOMALY   = 288.6013

EPHEMERIS_TYPE = 0
CLASSIFICATION_TYPE = U
NORAD_CAT_ID   = 25544
ELEMENT_SET_NO = 999
REV_AT_EPOCH   = 55157
BSTAR          = .22893974E-3
MEAN_MOTION_DOT = .11965E-3
MEAN_MOTION_DDOT = 0

CCSDS_OMM_VERS = 2.0
CREATION_DATE  = 
ORIGINATOR     = 

OBJECT_NAME    = CSS (TIANHE)
OBJECT_ID      = 2021-035A
CENTER_NAME    = EARTH
REF_FRAME      = TEME
TIME_SYSTEM    = UTC
MEAN_ELEMENT_THEORY = SGP/SGP4

EPOCH          = 2026-02-07T07:20:44.073888
MEAN_MOTION    = 15.59315504
ECCENTRICITY   = .00051589
INCLINATION    = 41.4681
RA_OF_ASC_NODE = 32.8450
ARG_OF_PERICENTER = 20.6768
MEAN_ANOMALY   = 339.4279

EPHEMERIS_TYPE = 0
CLASSIFICATION_TYPE = U
NORAD_CAT_ID   = 48274
ELEMENT_SET_NO = 999
REV_AT_EPOCH   = 27286
BSTAR          = .31114621E-3
MEAN_MOTION_DOT = .24969E-3
MEAN_MOTION_DDOT = 0

CCSDS_OMM_VERS = 2.0
CREATION_DATE  = 
ORIGINATOR     = 

OBJECT_NAME    = ISS (NAUKA)
OBJECT_ID      = 2021-066A
CENTER_NAME    = EARTH
REF_FRAME      = TEME
TIME_SYSTEM    = UTC
MEAN_ELEMENT_THEORY = SGP/SGP4

EPOCH          = 2026-02-06T23:40:36.733728
MEAN_MOTION    = 15.48450046
ECCENTRICITY   = .00111427
INCLINATION    = 51.6315
RA_OF_ASC_NODE = 224.1327
ARG_OF_PERICENTER = 71.6186
MEAN_ANOMALY   = 288.6013

EPHEMERIS_TYPE = 0
CLASSIFICATION_TYPE = U
NORAD_CAT_ID   = 49044
ELEMENT_SET_NO = 999
REV_AT_EPOCH   = 23044
BSTAR          = .22893974E-3
MEAN_MOTION_DOT = .11965E-3
MEAN_MOTION_DDOT = 0

CCSDS_OMM_VERS = 2.0
CREATION_DATE  = 
ORIGINATOR     = 

OBJECT_NAME    = FREGAT DEB
OBJECT_ID      = 2011-037PF
CENTER_NAME    = EARTH
REF_FRAME      = TEME
TIME_SYSTEM    = UTC
MEAN_ELEMENT_THEORY = SGP/SGP4

EPOCH          = 2026-02-05T08:02:24.781056
MEAN_MOTION    = 12.37884067
ECCENTRICITY   = .09266224
INCLINATION    = 51.6559
RA_OF_ASC_NODE = 37.5500
ARG_OF_PERICENTER = 345.1637
MEAN_ANOMALY   = 12.3633

EPHEMERIS_TYPE = 0
CLASSIFICATION_TYPE = U
NORAD_CAT_ID   = 49271
ELEMENT_SET_NO = 999
REV_AT_EPOCH   = 20868
BSTAR          = .93521946E-1
MEAN_MOTION_DOT = .55371E-3
MEAN_MOTION_DDOT = 0

CCSDS_OMM_VERS = 2.0
CREATION_DATE  = 
ORIGINATOR     = 

OBJECT_NAME    = CSS (WENTIAN)
OBJECT_ID      = 2022-085A
CENTER_NAME    = EARTH
REF_FRAME      = TEME
TIME_SYSTEM    = UTC
MEAN_ELEMENT_THEORY = SGP/SGP4

EPOCH          = 2026-02-07T07:20:44.073888
MEAN_MOTION    = 15.59315504
ECCENTRICITY   = .00051589
INCLINATION    = 41.4681
RA_OF_ASC_NODE = 32.8450
ARG_OF_PERICENTER = 20.6768
MEAN_ANOMALY   = 339.4279

EPHEMERIS_TYPE = 0
CLASSIFICATION_TYPE = U
NORAD_CAT_ID   = 53239
ELEMENT_SET_NO = 999
REV_AT_EPOCH   = 17384
BSTAR          = .31114621E-3
MEAN_MOTION_DOT = .24969E-3
MEAN_MOTION_DDOT = 0

CCSDS_OMM_VERS = 2.0
CREATION_DATE  = 
ORIGINATOR     = 

OBJECT_NAME    = CSS (MENGTIAN)
OBJECT_ID      = 2022-143A
CENTER_NAME    = EARTH
REF_FRAME      = TEME
TIME_SYSTEM    = UTC
MEAN_ELEMENT_THEORY = SGP/SGP4

EPOCH          = 2026-02-07T07:20:44.073888
MEAN_MOTION    = 15.59315504
ECCENTRICITY   = .00051589
INCLINATION    = 41.4681
RA_OF_ASC_NODE = 32.8450
ARG_OF_PERICENTER = 20.6768
MEAN_ANOMALY   = 339.4279

EPHEMERIS_TYPE = 0
CLASSIFICATION_TYPE = U
NORAD_CAT_ID   = 54216
ELEMENT_SET_NO = 999
REV_AT_EPOCH   = 15864
BSTAR          = .31114621E-3
MEAN_MOTION_DOT = .24969E-3
MEAN_MOTION_DDOT = 0

CCSDS_OMM_VERS = 2.0
CREATION_DATE  = 
ORIGINATOR     = 

OBJECT_NAME    = PROGRESS-MS 31
OBJECT_ID      = 2025-146A
CENTER_NAME    = EARTH
REF_FRAME      = TEME
TIME_SYSTEM    = UTC
MEAN_ELEMENT_THEORY = SGP/SGP4

EPOCH          = 2026-02-06T23:40:36.733728
MEAN_MOTION    = 15.48450046
ECCENTRICITY   = .00111427
INCLINATION    = 51.6315
RA_OF_ASC_NODE = 224.1327
ARG_OF_PERICENTER = 71.6186
MEAN_ANOMALY   = 288.6013

EPHEMERIS_TYPE = 0
CLASSIFICATION_TYPE = U
NORAD_CAT_ID   = 64751
ELEMENT_SET_NO = 999
REV_AT_EPOCH   = 675
BSTAR          = .22893974E-3
MEAN_MOTION_DOT = .11965E-3
MEAN_MOTION_DDOT = 0

CCSDS_OMM_VERS = 2.0
CREATION_DATE  = 
ORIGINATOR     = 

OBJECT_NAME    = TIANZHOU-9
OBJECT_ID      = 2025-149A
CENTER_NAME    = EARTH
REF_FRAME      = TEME
TIME_SYSTEM    = UTC
MEAN_ELEMENT_THEORY = SGP/SGP4

EPOCH          = 2026-02-07T07:20:44.073888
MEAN_MOTION    = 15.59315504
ECCENTRICITY   = .00051589
INCLINATION    = 41.4681
RA_OF_ASC_NODE = 32.8450
ARG_OF_PERICENTER = 20.6768
MEAN_ANOMALY   = 339.4279

EPHEMERIS_TYPE = 0
CLASSIFICATION_TYPE = U
NORAD_CAT_ID   = 64786
ELEMENT_SET_NO = 999
REV_AT_EPOCH   = 25530
BSTAR          = .31114621E-3
MEAN_MOTION_DOT = .24969E-3
MEAN_MOTION_DDOT = 0

CCSDS_OMM_VERS = 2.0
CREATION_DATE  = 
ORIGINATOR     = 

OBJECT_NAME    = DRAGON CRS-33
OBJECT_ID      = 2025-186A
CENTER_NAME    = EARTH
REF_FRAME      = TEME
TIME_SYSTEM    = UTC
MEAN_ELEMENT_THEORY = SGP/SGP4

EPOCH          = 2026-02-06T23:40:36.733728
MEAN_MOTION    = 15.48450046
ECCENTRICITY   = .00111427
INCLINATION    = 51.6315
RA_OF_ASC_NODE = 224.1327
ARG_OF_PERICENTER = 71.6186
MEAN_ANOMALY   = 288.6013

EPHEMERIS_TYPE = 0
CLASSIFICATION_TYPE = U
NORAD_CAT_ID   = 65304
ELEMENT_SET_NO = 999
REV_AT_EPOCH   = 11
BSTAR          = .22893974E-3
MEAN_MOTION_DOT = .11965E-3
MEAN_MOTION_DDOT = 0

CCSDS_OMM_VERS = 2.0
CREATION_DATE  = 
ORIGINATOR     = 

OBJECT_NAME    = PROGRESS-MS 32
OBJECT_ID      = 2025-204A
CENTER_NAME    = EARTH
REF_FRAME      = TEME
TIME_SYSTEM    = UTC
MEAN_ELEMENT_THEORY = SGP/SGP4

EPOCH          = 2026-02-06T23:40:36.733728
MEAN_MOTION    = 15.48450046
ECCENTRICITY   = .00111427
INCLINATION    = 51.6315
RA_OF_ASC_NODE = 224.1327
ARG_OF_PERICENTER = 71.6186
MEAN_ANOMALY   = 288.6013

EPHEMERIS_TYPE = 0
CLASSIFICATION_TYPE = U
NORAD_CAT_ID   = 65586
ELEMENT_SET_NO = 999
REV_AT_EPOCH   = 27
BSTAR          = .22893974E-3
MEAN_MOTION_DOT = .11965E-3
MEAN_MOTION_DDOT = 0

CCSDS_OMM_VERS = 2.0
CREATION_DATE  = 
ORIGINATOR     = 

OBJECT_NAME    = CYGNUS NG-23
OBJECT_ID      = 2025-208A
CENTER_NAME    = EARTH
REF_FRAME      = TEME
TIME_SYSTEM    = UTC
MEAN_ELEMENT_THEORY = SGP/SGP4

EPOCH          = 2026-02-06T23:40:36.733728
MEAN_MOTION    = 15.48450046
ECCENTRICITY   = .00111427
INCLINATION    = 51.6315
RA_OF_ASC_NODE = 224.1327
ARG_OF_PERICENTER = 71.6186
MEAN_ANOMALY   = 288.6013

EPHEMERIS_TYPE = 0
CLASSIFICATION_TYPE = U
NORAD_CAT_ID   = 65616
ELEMENT_SET_NO = 999
REV_AT_EPOCH   = 22
BSTAR          = .22893974E-3
MEAN_MOTION_DOT = .11965E-3
MEAN_MOTION_DDOT = 0

CCSDS_OMM_VERS = 2.0
CREATION_DATE  = 
ORIGINATOR     = 

OBJECT_NAME    = ISS OBJECT XK
OBJECT_ID      = 1998-067XK
CENTER_NAME    = EARTH
REF_FRAME      = TEME
TIME_SYSTEM    = UTC
MEAN_ELEMENT_THEORY = SGP/SGP4

EPOCH          = 2026-02-06T16:52:14.799648
MEAN_MOTION    = 15.83449040
ECCENTRICITY   = .00035196
INCLINATION    = 51.6226
RA_OF_ASC_NODE = 210.1936
ARG_OF_PERICENTER = 254.1842
MEAN_ANOMALY   = 105.8773

EPHEMERIS_TYPE = 0
CLASSIFICATION_TYPE = U
NORAD_CAT_ID   = 65731
ELEMENT_SET_NO = 999
REV_AT_EPOCH   = 2195
BSTAR          = .12463538E-2
MEAN_MOTION_DOT = .286625E-2
MEAN_MOTION_DDOT = 0

